TIANMU-1 08             
1 57400U 23101B   26066.00237819  .00000346  00000+0  14775-4 0  9993
2 57400  97.2717 118.7901 0006380 134.2174 225.9592 15.29204229146020
STARLINK-31141          
1 58803U 24012S   26068.29670753 -.00022971  00000+0 -82861-3 0  9994
2 58803  42.9989 167.6553 0000713 245.7491 114.3286 15.27549168121178
